{"type":"FeatureCollection","features":[{"type":"Feature","geometry":{"type":"Point","coordinates":[76.889,28.302]},"properties":{"layer":"warehouse","id":"FC-DEL","name":"Bilaspur (Gurugram) FC","city_id":"DEL"}},{"type":"Feature","geometry":{"type":"Point","coordinates":[73.0483,19.2813]},"properties":{"layer":"warehouse","id":"FC-MUM","name":"Bhiwandi FC","city_id":"MUM"}},{"type":"Feature","geometry":{"type":"Point","coordinates":[77.7982,13.0707]},"properties":{"layer":"warehouse","id":"FC-BLR","name":"Hoskote FC","city_id":"BLR"}},{"type":"Feature","geometry":{"type":"Point","coordinates":[79.9419,12.9675]},"properties":{"layer":"warehouse","id":"FC-CHE","name":"Sriperumbudur FC","city_id":"CHE"}},{"type":"Feature","geometry":{"type":"Point","coordinates":[78.429,17.2543]},"properties":{"layer":"warehouse","id":"FC-HYD","name":"Shamshabad FC","city_id":"HYD"}},{"type":"Feature","geometry":{"type":"Point","coordinates":[88.29,22.68]},"properties":{"layer":"warehouse","id":"FC-KOL","name":"Dankuni FC","city_id":"KOL"}},{"type":"Feature","geometry":{"type":"Point","coordinates":[72.44,22.93]},"properties":{"layer":"warehouse","id":"FC-AMD","name":"Changodar FC","city_id":"AMD"}},{"type":"Feature","geometry":{"type":"Point","coordinates":[73.86,18.76]},"properties":{"layer":"warehouse","id":"FC-PUN","name":"Chakan FC","city_id":"PUN"}},{"type":"Feature","geometry":{"type":"Point","coordinates":[81.05,26.88]},"properties":{"layer":"warehouse","id":"FC-LKO","name":"Chinhat FC","city_id":"LKO"}},{"type":"Feature","geometry":{"type":"Point","coordinates":[91.67,26.19]},"properties":{"layer":"warehouse","id":"FC-GUW","name":"Amingaon FC","city_id":"GUW"}},{"type":"Feature","geometry":{"type":"Point","coordinates":[77.2295,28.5555]},"properties":{"layer":"hub","id":"HUB-DEL","name":"Delhi delivery hub","city_id":"DEL"}},{"type":"Feature","geometry":{"type":"Point","coordinates":[75.758,26.963]},"properties":{"layer":"hub","id":"HUB-JAI","name":"Jaipur delivery hub","city_id":"JAI"}},{"type":"Feature","geometry":{"type":"Point","coordinates":[73.0209,26.1766]},"properties":{"layer":"hub","id":"HUB-JOD","name":"Jodhpur delivery hub","city_id":"JOD"}},{"type":"Feature","geometry":{"type":"Point","coordinates":[81.0068,26.8702]},"properties":{"layer":"hub","id":"HUB-LKO","name":"Lucknow delivery hub","city_id":"LKO"}},{"type":"Feature","geometry":{"type":"Point","coordinates":[77.9495,27.1276]},"properties":{"layer":"hub","id":"HUB-AGR","name":"Agra delivery hub","city_id":"AGR"}},{"type":"Feature","geometry":{"type":"Point","coordinates":[83.0045,25.3588]},"properties":{"layer":"hub","id":"HUB-VNS","name":"Varanasi delivery hub","city_id":"VNS"}},{"type":"Feature","geometry":{"type":"Point","coordinates":[76.8248,30.7942]},"properties":{"layer":"hub","id":"HUB-CHD","name":"Chandigarh delivery hub","city_id":"CHD"}},{"type":"Feature","geometry":{"type":"Point","coordinates":[75.8159,30.8878]},"properties":{"layer":"hub","id":"HUB-LDH","name":"Ludhiana delivery hub","city_id":"LDH"}},{"type":"Feature","geometry":{"type":"Point","coordinates":[78.0219,30.3954]},"properties":{"layer":"hub","id":"HUB-DDN","name":"Dehradun delivery hub","city_id":"DDN"}},{"type":"Feature","geometry":{"type":"Point","coordinates":[72.5145,22.9864]},"properties":{"layer":"hub","id":"HUB-AMD","name":"Ahmedabad delivery hub","city_id":"AMD"}},{"type":"Feature","geometry":{"type":"Point","coordinates":[72.864,21.1903]},"properties":{"layer":"hub","id":"HUB-SRT","name":"Surat delivery hub","city_id":"SRT"}},{"type":"Feature","geometry":{"type":"Point","coordinates":[73.1738,22.2692]},"properties":{"layer":"hub","id":"HUB-BRD","name":"Vadodara delivery hub","city_id":"BRD"}},{"type":"Feature","geometry":{"type":"Point","coordinates":[70.8493,22.3211]},"properties":{"layer":"hub","id":"HUB-RJK","name":"Rajkot delivery hub","city_id":"RJK"}},{"type":"Feature","geometry":{"type":"Point","coordinates":[72.889,19.1318]},"properties":{"layer":"hub","id":"HUB-MUM","name":"Mumbai delivery hub","city_id":"MUM"}},{"type":"Feature","geometry":{"type":"Point","coordinates":[73.8851,18.4516]},"properties":{"layer":"hub","id":"HUB-PUN","name":"Pune delivery hub","city_id":"PUN"}},{"type":"Feature","geometry":{"type":"Point","coordinates":[73.7815,19.9332]},"properties":{"layer":"hub","id":"HUB-NSK","name":"Nashik delivery hub","city_id":"NSK"}},{"type":"Feature","geometry":{"type":"Point","coordinates":[79.0883,21.08]},"properties":{"layer":"hub","id":"HUB-NAG","name":"Nagpur delivery hub","city_id":"NAG"}},{"type":"Feature","geometry":{"type":"Point","coordinates":[75.8716,22.6729]},"properties":{"layer":"hub","id":"HUB-IDR","name":"Indore delivery hub","city_id":"IDR"}},{"type":"Feature","geometry":{"type":"Point","coordinates":[77.4113,23.3406]},"properties":{"layer":"hub","id":"HUB-BPL","name":"Bhopal delivery hub","city_id":"BPL"}},{"type":"Feature","geometry":{"type":"Point","coordinates":[73.7684,15.5273]},"properties":{"layer":"hub","id":"HUB-GOA","name":"Panaji delivery hub","city_id":"GOA"}},{"type":"Feature","geometry":{"type":"Point","coordinates":[77.6382,12.9531]},"properties":{"layer":"hub","id":"HUB-BLR","name":"Bengaluru delivery hub","city_id":"BLR"}},{"type":"Feature","geometry":{"type":"Point","coordinates":[76.6782,12.2863]},"properties":{"layer":"hub","id":"HUB-MYS","name":"Mysuru delivery hub","city_id":"MYS"}},{"type":"Feature","geometry":{"type":"Point","coordinates":[74.8009,12.9196]},"properties":{"layer":"hub","id":"HUB-MLR","name":"Mangaluru delivery hub","city_id":"MLR"}},{"type":"Feature","geometry":{"type":"Point","coordinates":[75.0785,15.3951]},"properties":{"layer":"hub","id":"HUB-HBL","name":"Hubballi delivery hub","city_id":"HBL"}},{"type":"Feature","geometry":{"type":"Point","coordinates":[80.2509,13.1542]},"properties":{"layer":"hub","id":"HUB-CHE","name":"Chennai delivery hub","city_id":"CHE"}},{"type":"Feature","geometry":{"type":"Point","coordinates":[76.956,11.0622]},"properties":{"layer":"hub","id":"HUB-CBE","name":"Coimbatore delivery hub","city_id":"CBE"}},{"type":"Feature","geometry":{"type":"Point","coordinates":[78.0888,9.9735]},"properties":{"layer":"hub","id":"HUB-MDU","name":"Madurai delivery hub","city_id":"MDU"}},{"type":"Feature","geometry":{"type":"Point","coordinates":[76.2606,9.9846]},"properties":{"layer":"hub","id":"HUB-KOC","name":"Kochi delivery hub","city_id":"KOC"}},{"type":"Feature","geometry":{"type":"Point","coordinates":[76.9654,8.5817]},"properties":{"layer":"hub","id":"HUB-TVM","name":"Thiruvananthapuram delivery hub","city_id":"TVM"}},{"type":"Feature","geometry":{"type":"Point","coordinates":[78.4371,17.3936]},"properties":{"layer":"hub","id":"HUB-HYD","name":"Hyderabad delivery hub","city_id":"HYD"}},{"type":"Feature","geometry":{"type":"Point","coordinates":[80.6757,16.5497]},"properties":{"layer":"hub","id":"HUB-VJA","name":"Vijayawada delivery hub","city_id":"VJA"}},{"type":"Feature","geometry":{"type":"Point","coordinates":[83.202,17.7551]},"properties":{"layer":"hub","id":"HUB-VSK","name":"Visakhapatnam delivery hub","city_id":"VSK"}},{"type":"Feature","geometry":{"type":"Point","coordinates":[80.0193,14.4773]},"properties":{"layer":"hub","id":"HUB-NLR","name":"Nellore delivery hub","city_id":"NLR"}},{"type":"Feature","geometry":{"type":"Point","coordinates":[88.3887,22.6037]},"properties":{"layer":"hub","id":"HUB-KOL","name":"Kolkata delivery hub","city_id":"KOL"}},{"type":"Feature","geometry":{"type":"Point","coordinates":[88.3482,26.7399]},"properties":{"layer":"hub","id":"HUB-SLG","name":"Siliguri delivery hub","city_id":"SLG"}},{"type":"Feature","geometry":{"type":"Point","coordinates":[85.8027,20.2439]},"properties":{"layer":"hub","id":"HUB-BBS","name":"Bhubaneswar delivery hub","city_id":"BBS"}},{"type":"Feature","geometry":{"type":"Point","coordinates":[85.2087,25.6192]},"properties":{"layer":"hub","id":"HUB-PAT","name":"Patna delivery hub","city_id":"PAT"}},{"type":"Feature","geometry":{"type":"Point","coordinates":[85.3615,23.3882]},"properties":{"layer":"hub","id":"HUB-RAN","name":"Ranchi delivery hub","city_id":"RAN"}},{"type":"Feature","geometry":{"type":"Point","coordinates":[81.669,21.2922]},"properties":{"layer":"hub","id":"HUB-RPR","name":"Raipur delivery hub","city_id":"RPR"}},{"type":"Feature","geometry":{"type":"Point","coordinates":[91.7883,26.1556]},"properties":{"layer":"hub","id":"HUB-GUW","name":"Guwahati delivery hub","city_id":"GUW"}},{"type":"Feature","geometry":{"type":"Point","coordinates":[77.209,28.6139]},"properties":{"layer":"city","id":"DEL","name":"Delhi","state":"Delhi","demand":10}},{"type":"Feature","geometry":{"type":"Point","coordinates":[75.7873,26.9124]},"properties":{"layer":"city","id":"JAI","name":"Jaipur","state":"Rajasthan","demand":3}},{"type":"Feature","geometry":{"type":"Point","coordinates":[73.0243,26.2389]},"properties":{"layer":"city","id":"JOD","name":"Jodhpur","state":"Rajasthan","demand":1.0}},{"type":"Feature","geometry":{"type":"Point","coordinates":[80.9462,26.8467]},"properties":{"layer":"city","id":"LKO","name":"Lucknow","state":"Uttar Pradesh","demand":3}},{"type":"Feature","geometry":{"type":"Point","coordinates":[78.0081,27.1767]},"properties":{"layer":"city","id":"AGR","name":"Agra","state":"Uttar Pradesh","demand":1.2}},{"type":"Feature","geometry":{"type":"Point","coordinates":[82.9739,25.3176]},"properties":{"layer":"city","id":"VNS","name":"Varanasi","state":"Uttar Pradesh","demand":1.2}},{"type":"Feature","geometry":{"type":"Point","coordinates":[76.7794,30.7333]},"properties":{"layer":"city","id":"CHD","name":"Chandigarh","state":"Chandigarh","demand":2}},{"type":"Feature","geometry":{"type":"Point","coordinates":[75.8573,30.901]},"properties":{"layer":"city","id":"LDH","name":"Ludhiana","state":"Punjab","demand":1.4}},{"type":"Feature","geometry":{"type":"Point","coordinates":[78.0322,30.3165]},"properties":{"layer":"city","id":"DDN","name":"Dehradun","state":"Uttarakhand","demand":1.0}},{"type":"Feature","geometry":{"type":"Point","coordinates":[72.5714,23.0225]},"properties":{"layer":"city","id":"AMD","name":"Ahmedabad","state":"Gujarat","demand":4.5}},{"type":"Feature","geometry":{"type":"Point","coordinates":[72.8311,21.1702]},"properties":{"layer":"city","id":"SRT","name":"Surat","state":"Gujarat","demand":3}},{"type":"Feature","geometry":{"type":"Point","coordinates":[73.1812,22.3072]},"properties":{"layer":"city","id":"BRD","name":"Vadodara","state":"Gujarat","demand":1.4}},{"type":"Feature","geometry":{"type":"Point","coordinates":[70.8022,22.3039]},"properties":{"layer":"city","id":"RJK","name":"Rajkot","state":"Gujarat","demand":1.1}},{"type":"Feature","geometry":{"type":"Point","coordinates":[72.8777,19.076]},"properties":{"layer":"city","id":"MUM","name":"Mumbai","state":"Maharashtra","demand":9}},{"type":"Feature","geometry":{"type":"Point","coordinates":[73.8567,18.5204]},"properties":{"layer":"city","id":"PUN","name":"Pune","state":"Maharashtra","demand":5}},{"type":"Feature","geometry":{"type":"Point","coordinates":[73.7898,19.9975]},"properties":{"layer":"city","id":"NSK","name":"Nashik","state":"Maharashtra","demand":1.2}},{"type":"Feature","geometry":{"type":"Point","coordinates":[79.0882,21.1458]},"properties":{"layer":"city","id":"NAG","name":"Nagpur","state":"Maharashtra","demand":2}},{"type":"Feature","geometry":{"type":"Point","coordinates":[75.8577,22.7196]},"properties":{"layer":"city","id":"IDR","name":"Indore","state":"Madhya Pradesh","demand":2.5}},{"type":"Feature","geometry":{"type":"Point","coordinates":[77.4126,23.2599]},"properties":{"layer":"city","id":"BPL","name":"Bhopal","state":"Madhya Pradesh","demand":2}},{"type":"Feature","geometry":{"type":"Point","coordinates":[73.8278,15.4909]},"properties":{"layer":"city","id":"GOA","name":"Panaji","state":"Goa","demand":1.0}},{"type":"Feature","geometry":{"type":"Point","coordinates":[77.5946,12.9716]},"properties":{"layer":"city","id":"BLR","name":"Bengaluru","state":"Karnataka","demand":9}},{"type":"Feature","geometry":{"type":"Point","coordinates":[76.6394,12.2958]},"properties":{"layer":"city","id":"MYS","name":"Mysuru","state":"Karnataka","demand":1.4}},{"type":"Feature","geometry":{"type":"Point","coordinates":[74.856,12.9141]},"properties":{"layer":"city","id":"MLR","name":"Mangaluru","state":"Karnataka","demand":1.2}},{"type":"Feature","geometry":{"type":"Point","coordinates":[75.124,15.3647]},"properties":{"layer":"city","id":"HBL","name":"Hubballi","state":"Karnataka","demand":1.0}},{"type":"Feature","geometry":{"type":"Point","coordinates":[80.2707,13.0827]},"properties":{"layer":"city","id":"CHE","name":"Chennai","state":"Tamil Nadu","demand":6}},{"type":"Feature","geometry":{"type":"Point","coordinates":[76.9558,11.0168]},"properties":{"layer":"city","id":"CBE","name":"Coimbatore","state":"Tamil Nadu","demand":2}},{"type":"Feature","geometry":{"type":"Point","coordinates":[78.1198,9.9252]},"properties":{"layer":"city","id":"MDU","name":"Madurai","state":"Tamil Nadu","demand":1.3}},{"type":"Feature","geometry":{"type":"Point","coordinates":[76.2673,9.9312]},"properties":{"layer":"city","id":"KOC","name":"Kochi","state":"Kerala","demand":2.5}},{"type":"Feature","geometry":{"type":"Point","coordinates":[76.9366,8.5241]},"properties":{"layer":"city","id":"TVM","name":"Thiruvananthapuram","state":"Kerala","demand":1.6}},{"type":"Feature","geometry":{"type":"Point","coordinates":[78.4867,17.385]},"properties":{"layer":"city","id":"HYD","name":"Hyderabad","state":"Telangana","demand":6}},{"type":"Feature","geometry":{"type":"Point","coordinates":[80.648,16.5062]},"properties":{"layer":"city","id":"VJA","name":"Vijayawada","state":"Andhra Pradesh","demand":1.5}},{"type":"Feature","geometry":{"type":"Point","coordinates":[83.2185,17.6868]},"properties":{"layer":"city","id":"VSK","name":"Visakhapatnam","state":"Andhra Pradesh","demand":2}},{"type":"Feature","geometry":{"type":"Point","coordinates":[79.9865,14.4426]},"properties":{"layer":"city","id":"NLR","name":"Nellore","state":"Andhra Pradesh","demand":0.8}},{"type":"Feature","geometry":{"type":"Point","coordinates":[88.3639,22.5726]},"properties":{"layer":"city","id":"KOL","name":"Kolkata","state":"West Bengal","demand":6}},{"type":"Feature","geometry":{"type":"Point","coordinates":[88.3953,26.7271]},"properties":{"layer":"city","id":"SLG","name":"Siliguri","state":"West Bengal","demand":0.8}},{"type":"Feature","geometry":{"type":"Point","coordinates":[85.8245,20.2961]},"properties":{"layer":"city","id":"BBS","name":"Bhubaneswar","state":"Odisha","demand":1.8}},{"type":"Feature","geometry":{"type":"Point","coordinates":[85.1376,25.5941]},"properties":{"layer":"city","id":"PAT","name":"Patna","state":"Bihar","demand":2}},{"type":"Feature","geometry":{"type":"Point","coordinates":[85.3096,23.3441]},"properties":{"layer":"city","id":"RAN","name":"Ranchi","state":"Jharkhand","demand":1.4}},{"type":"Feature","geometry":{"type":"Point","coordinates":[81.6296,21.2514]},"properties":{"layer":"city","id":"RPR","name":"Raipur","state":"Chhattisgarh","demand":1.3}},{"type":"Feature","geometry":{"type":"Point","coordinates":[91.7362,26.1445]},"properties":{"layer":"city","id":"GUW","name":"Guwahati","state":"Assam","demand":1.8}},{"type":"Feature","geometry":{"type":"LineString","coordinates":[[76.889,28.302],[77.2295,28.5555]]},"properties":{"layer":"route","id":"R-DEL-DEL","code":"DEL → DEL","role":"primary","city_id":"DEL","warehouse_id":"FC-DEL","distance_km":35}},{"type":"Feature","geometry":{"type":"LineString","coordinates":[[81.05,26.88],[77.2295,28.5555]]},"properties":{"layer":"route","id":"R-LKO-DEL","code":"LKO → DEL","role":"secondary","city_id":"DEL","warehouse_id":"FC-LKO","distance_km":530.4}},{"type":"Feature","geometry":{"type":"LineString","coordinates":[[76.889,28.302],[75.758,26.963]]},"properties":{"layer":"route","id":"R-DEL-JAI","code":"DEL → JAI","role":"primary","city_id":"JAI","warehouse_id":"FC-DEL","distance_km":236.0}},{"type":"Feature","geometry":{"type":"LineString","coordinates":[[81.05,26.88],[78.0081,27.1767],[75.758,26.963]]},"properties":{"layer":"route","id":"R-LKO-JAI","code":"LKO → JAI","role":"secondary","city_id":"JAI","warehouse_id":"FC-LKO","distance_km":652.3}},{"type":"Feature","geometry":{"type":"LineString","coordinates":[[72.44,22.93],[73.0209,26.1766]]},"properties":{"layer":"route","id":"R-AMD-JOD","code":"AMD → JOD","role":"primary","city_id":"JOD","warehouse_id":"FC-AMD","distance_km":465.8}},{"type":"Feature","geometry":{"type":"LineString","coordinates":[[76.889,28.302],[73.0209,26.1766]]},"properties":{"layer":"route","id":"R-DEL-JOD","code":"DEL → JOD","role":"secondary","city_id":"JOD","warehouse_id":"FC-DEL","distance_km":556.9}},{"type":"Feature","geometry":{"type":"LineString","coordinates":[[81.05,26.88],[81.0068,26.8702]]},"properties":{"layer":"route","id":"R-LKO-LKO","code":"LKO → LKO","role":"primary","city_id":"LKO","warehouse_id":"FC-LKO","distance_km":35}},{"type":"Feature","geometry":{"type":"LineString","coordinates":[[76.889,28.302],[81.0068,26.8702]]},"properties":{"layer":"route","id":"R-DEL-LKO","code":"DEL → LKO","role":"secondary","city_id":"LKO","warehouse_id":"FC-DEL","distance_km":539.2}},{"type":"Feature","geometry":{"type":"LineString","coordinates":[[76.889,28.302],[77.9495,27.1276]]},"properties":{"layer":"route","id":"R-DEL-AGR","code":"DEL → AGR","role":"primary","city_id":"AGR","warehouse_id":"FC-DEL","distance_km":208.4}},{"type":"Feature","geometry":{"type":"LineString","coordinates":[[81.05,26.88],[77.9495,27.1276]]},"properties":{"layer":"route","id":"R-LKO-AGR","code":"LKO → AGR","role":"secondary","city_id":"AGR","warehouse_id":"FC-LKO","distance_km":378.9}},{"type":"Feature","geometry":{"type":"LineString","coordinates":[[81.05,26.88],[83.0045,25.3588]]},"properties":{"layer":"route","id":"R-LKO-VNS","code":"LKO → VNS","role":"primary","city_id":"VNS","warehouse_id":"FC-LKO","distance_km":323.8}},{"type":"Feature","geometry":{"type":"LineString","coordinates":[[88.29,22.68],[83.0045,25.3588]]},"properties":{"layer":"route","id":"R-KOL-VNS","code":"KOL → VNS","role":"secondary","city_id":"VNS","warehouse_id":"FC-KOL","distance_km":768.0}},{"type":"Feature","geometry":{"type":"LineString","coordinates":[[76.889,28.302],[76.8248,30.7942]]},"properties":{"layer":"route","id":"R-DEL-CHD","code":"DEL → CHD","role":"primary","city_id":"CHD","warehouse_id":"FC-DEL","distance_km":338.2}},{"type":"Feature","geometry":{"type":"LineString","coordinates":[[81.05,26.88],[76.8248,30.7942]]},"properties":{"layer":"route","id":"R-LKO-CHD","code":"LKO → CHD","role":"secondary","city_id":"CHD","warehouse_id":"FC-LKO","distance_km":746.4}},{"type":"Feature","geometry":{"type":"LineString","coordinates":[[76.889,28.302],[75.8159,30.8878]]},"properties":{"layer":"route","id":"R-DEL-LDH","code":"DEL → LDH","role":"primary","city_id":"LDH","warehouse_id":"FC-DEL","distance_km":382.2}},{"type":"Feature","geometry":{"type":"LineString","coordinates":[[81.05,26.88],[76.7794,30.7333],[75.8159,30.8878]]},"properties":{"layer":"route","id":"R-LKO-LDH","code":"LKO → LDH","role":"secondary","city_id":"LDH","warehouse_id":"FC-LKO","distance_km":843.4}},{"type":"Feature","geometry":{"type":"LineString","coordinates":[[76.889,28.302],[78.0219,30.3954]]},"properties":{"layer":"route","id":"R-DEL-DDN","code":"DEL → DDN","role":"primary","city_id":"DDN","warehouse_id":"FC-DEL","distance_km":312.4}},{"type":"Feature","geometry":{"type":"LineString","coordinates":[[81.05,26.88],[78.0219,30.3954]]},"properties":{"layer":"route","id":"R-LKO-DDN","code":"LKO → DDN","role":"secondary","city_id":"DDN","warehouse_id":"FC-LKO","distance_km":603.1}},{"type":"Feature","geometry":{"type":"LineString","coordinates":[[72.44,22.93],[72.5145,22.9864]]},"properties":{"layer":"route","id":"R-AMD-AMD","code":"AMD → AMD","role":"primary","city_id":"AMD","warehouse_id":"FC-AMD","distance_km":35}},{"type":"Feature","geometry":{"type":"LineString","coordinates":[[73.0483,19.2813],[72.8311,21.1702],[72.5145,22.9864]]},"properties":{"layer":"route","id":"R-MUM-AMD","code":"MUM → AMD","role":"secondary","city_id":"AMD","warehouse_id":"FC-MUM","distance_km":523.7}},{"type":"Feature","geometry":{"type":"LineString","coordinates":[[72.44,22.93],[72.864,21.1903]]},"properties":{"layer":"route","id":"R-AMD-SRT","code":"AMD → SRT","role":"primary","city_id":"SRT","warehouse_id":"FC-AMD","distance_km":249.7}},{"type":"Feature","geometry":{"type":"LineString","coordinates":[[73.0483,19.2813],[72.864,21.1903]]},"properties":{"layer":"route","id":"R-MUM-SRT","code":"MUM → SRT","role":"secondary","city_id":"SRT","warehouse_id":"FC-MUM","distance_km":264.1}},{"type":"Feature","geometry":{"type":"LineString","coordinates":[[72.44,22.93],[73.1738,22.2692]]},"properties":{"layer":"route","id":"R-AMD-BRD","code":"AMD → BRD","role":"primary","city_id":"BRD","warehouse_id":"FC-AMD","distance_km":128.6}},{"type":"Feature","geometry":{"type":"LineString","coordinates":[[73.0483,19.2813],[72.8311,21.1702],[73.1738,22.2692]]},"properties":{"layer":"route","id":"R-MUM-BRD","code":"MUM → BRD","role":"secondary","city_id":"BRD","warehouse_id":"FC-MUM","distance_km":420.9}},{"type":"Feature","geometry":{"type":"LineString","coordinates":[[72.44,22.93],[70.8493,22.3211]]},"properties":{"layer":"route","id":"R-AMD-RJK","code":"AMD → RJK","role":"primary","city_id":"RJK","warehouse_id":"FC-AMD","distance_km":227.4}},{"type":"Feature","geometry":{"type":"LineString","coordinates":[[73.0483,19.2813],[70.8493,22.3211]]},"properties":{"layer":"route","id":"R-MUM-RJK","code":"MUM → RJK","role":"secondary","city_id":"RJK","warehouse_id":"FC-MUM","distance_km":511.5}},{"type":"Feature","geometry":{"type":"LineString","coordinates":[[73.0483,19.2813],[72.889,19.1318]]},"properties":{"layer":"route","id":"R-MUM-MUM","code":"MUM → MUM","role":"primary","city_id":"MUM","warehouse_id":"FC-MUM","distance_km":35}},{"type":"Feature","geometry":{"type":"LineString","coordinates":[[73.86,18.76],[72.889,19.1318]]},"properties":{"layer":"route","id":"R-PUN-MUM","code":"PUN → MUM","role":"secondary","city_id":"MUM","warehouse_id":"FC-PUN","distance_km":136.4}},{"type":"Feature","geometry":{"type":"LineString","coordinates":[[73.86,18.76],[73.8851,18.4516]]},"properties":{"layer":"route","id":"R-PUN-PUN","code":"PUN → PUN","role":"primary","city_id":"PUN","warehouse_id":"FC-PUN","distance_km":35}},{"type":"Feature","geometry":{"type":"LineString","coordinates":[[73.0483,19.2813],[73.8851,18.4516]]},"properties":{"layer":"route","id":"R-MUM-PUN","code":"MUM → PUN","role":"secondary","city_id":"PUN","warehouse_id":"FC-MUM","distance_km":150.0}},{"type":"Feature","geometry":{"type":"LineString","coordinates":[[73.0483,19.2813],[73.7815,19.9332]]},"properties":{"layer":"route","id":"R-MUM-NSK","code":"MUM → NSK","role":"primary","city_id":"NSK","warehouse_id":"FC-MUM","distance_km":139.0}},{"type":"Feature","geometry":{"type":"LineString","coordinates":[[73.86,18.76],[73.7815,19.9332]]},"properties":{"layer":"route","id":"R-PUN-NSK","code":"PUN → NSK","role":"secondary","city_id":"NSK","warehouse_id":"FC-PUN","distance_km":172.3}},{"type":"Feature","geometry":{"type":"LineString","coordinates":[[78.429,17.2543],[79.0883,21.08]]},"properties":{"layer":"route","id":"R-HYD-NAG","code":"HYD → NAG","role":"primary","city_id":"NAG","warehouse_id":"FC-HYD","distance_km":547.8}},{"type":"Feature","geometry":{"type":"LineString","coordinates":[[73.86,18.76],[79.0883,21.08]]},"properties":{"layer":"route","id":"R-PUN-NAG","code":"PUN → NAG","role":"secondary","city_id":"NAG","warehouse_id":"FC-PUN","distance_km":759.2}},{"type":"Feature","geometry":{"type":"LineString","coordinates":[[72.44,22.93],[75.8716,22.6729]]},"properties":{"layer":"route","id":"R-AMD-IDR","code":"AMD → IDR","role":"primary","city_id":"IDR","warehouse_id":"FC-AMD","distance_km":438.8}},{"type":"Feature","geometry":{"type":"LineString","coordinates":[[73.0483,19.2813],[73.7898,19.9975],[75.8716,22.6729]]},"properties":{"layer":"route","id":"R-MUM-IDR","code":"MUM → IDR","role":"secondary","city_id":"IDR","warehouse_id":"FC-MUM","distance_km":601.0}},{"type":"Feature","geometry":{"type":"LineString","coordinates":[[72.44,22.93],[77.4113,23.3406]]},"properties":{"layer":"route","id":"R-AMD-BPL","code":"AMD → BPL","role":"primary","city_id":"BPL","warehouse_id":"FC-AMD","distance_km":637.4}},{"type":"Feature","geometry":{"type":"LineString","coordinates":[[81.05,26.88],[77.4113,23.3406]]},"properties":{"layer":"route","id":"R-LKO-BPL","code":"LKO → BPL","role":"secondary","city_id":"BPL","warehouse_id":"FC-LKO","distance_km":680.3}},{"type":"Feature","geometry":{"type":"LineString","coordinates":[[73.86,18.76],[73.7684,15.5273]]},"properties":{"layer":"route","id":"R-PUN-GOA","code":"PUN → GOA","role":"primary","city_id":"GOA","warehouse_id":"FC-PUN","distance_km":454.4}},{"type":"Feature","geometry":{"type":"LineString","coordinates":[[73.0483,19.2813],[73.7684,15.5273]]},"properties":{"layer":"route","id":"R-MUM-GOA","code":"MUM → GOA","role":"secondary","city_id":"GOA","warehouse_id":"FC-MUM","distance_km":536.9}},{"type":"Feature","geometry":{"type":"LineString","coordinates":[[77.7982,13.0707],[77.6382,12.9531]]},"properties":{"layer":"route","id":"R-BLR-BLR","code":"BLR → BLR","role":"primary","city_id":"BLR","warehouse_id":"FC-BLR","distance_km":35}},{"type":"Feature","geometry":{"type":"LineString","coordinates":[[79.9419,12.9675],[77.6382,12.9531]]},"properties":{"layer":"route","id":"R-CHE-BLR","code":"CHE → BLR","role":"secondary","city_id":"BLR","warehouse_id":"FC-CHE","distance_km":317.9}},{"type":"Feature","geometry":{"type":"LineString","coordinates":[[77.7982,13.0707],[76.6782,12.2863]]},"properties":{"layer":"route","id":"R-BLR-MYS","code":"BLR → MYS","role":"primary","city_id":"MYS","warehouse_id":"FC-BLR","distance_km":190.5}},{"type":"Feature","geometry":{"type":"LineString","coordinates":[[79.9419,12.9675],[76.6782,12.2863]]},"properties":{"layer":"route","id":"R-CHE-MYS","code":"CHE → MYS","role":"secondary","city_id":"MYS","warehouse_id":"FC-CHE","distance_km":457.5}},{"type":"Feature","geometry":{"type":"LineString","coordinates":[[77.7982,13.0707],[74.8009,12.9196]]},"properties":{"layer":"route","id":"R-BLR-MLR","code":"BLR → MLR","role":"primary","city_id":"MLR","warehouse_id":"FC-BLR","distance_km":399.1}},{"type":"Feature","geometry":{"type":"LineString","coordinates":[[79.9419,12.9675],[77.5946,12.9716],[74.8009,12.9196]]},"properties":{"layer":"route","id":"R-CHE-MLR","code":"CHE → MLR","role":"secondary","city_id":"MLR","warehouse_id":"FC-CHE","distance_km":689.0}},{"type":"Feature","geometry":{"type":"LineString","coordinates":[[77.7982,13.0707],[75.0785,15.3951]]},"properties":{"layer":"route","id":"R-BLR-HBL","code":"BLR → HBL","role":"primary","city_id":"HBL","warehouse_id":"FC-BLR","distance_km":481.1}},{"type":"Feature","geometry":{"type":"LineString","coordinates":[[73.86,18.76],[75.0785,15.3951]]},"properties":{"layer":"route","id":"R-PUN-HBL","code":"PUN → HBL","role":"secondary","city_id":"HBL","warehouse_id":"FC-PUN","distance_km":500.9}},{"type":"Feature","geometry":{"type":"LineString","coordinates":[[79.9419,12.9675],[80.2509,13.1542]]},"properties":{"layer":"route","id":"R-CHE-CHE","code":"CHE → CHE","role":"primary","city_id":"CHE","warehouse_id":"FC-CHE","distance_km":35}},{"type":"Feature","geometry":{"type":"LineString","coordinates":[[77.7982,13.0707],[80.2509,13.1542]]},"properties":{"layer":"route","id":"R-BLR-CHE","code":"BLR → CHE","role":"secondary","city_id":"CHE","warehouse_id":"FC-BLR","distance_km":334.8}},{"type":"Feature","geometry":{"type":"LineString","coordinates":[[77.7982,13.0707],[76.956,11.0622]]},"properties":{"layer":"route","id":"R-BLR-CBE","code":"BLR → CBE","role":"primary","city_id":"CBE","warehouse_id":"FC-BLR","distance_km":307.6}},{"type":"Feature","geometry":{"type":"LineString","coordinates":[[79.9419,12.9675],[76.956,11.0622]]},"properties":{"layer":"route","id":"R-CHE-CBE","code":"CHE → CBE","role":"secondary","city_id":"CBE","warehouse_id":"FC-CHE","distance_km":488.2}},{"type":"Feature","geometry":{"type":"LineString","coordinates":[[77.7982,13.0707],[78.0888,9.9735]]},"properties":{"layer":"route","id":"R-BLR-MDU","code":"BLR → MDU","role":"primary","city_id":"MDU","warehouse_id":"FC-BLR","distance_km":439.4}},{"type":"Feature","geometry":{"type":"LineString","coordinates":[[79.9419,12.9675],[78.0888,9.9735]]},"properties":{"layer":"route","id":"R-CHE-MDU","code":"CHE → MDU","role":"secondary","city_id":"MDU","warehouse_id":"FC-CHE","distance_km":490.3}},{"type":"Feature","geometry":{"type":"LineString","coordinates":[[77.7982,13.0707],[76.9558,11.0168],[76.2606,9.9846]]},"properties":{"layer":"route","id":"R-BLR-KOC","code":"BLR → KOC","role":"primary","city_id":"KOC","warehouse_id":"FC-BLR","distance_km":483.6}},{"type":"Feature","geometry":{"type":"LineString","coordinates":[[79.9419,12.9675],[76.2606,9.9846]]},"properties":{"layer":"route","id":"R-CHE-KOC","code":"CHE → KOC","role":"secondary","city_id":"KOC","warehouse_id":"FC-CHE","distance_km":654.7}},{"type":"Feature","geometry":{"type":"LineString","coordinates":[[77.7982,13.0707],[76.9558,11.0168],[76.9654,8.5817]]},"properties":{"layer":"route","id":"R-BLR-TVM","code":"BLR → TVM","role":"primary","city_id":"TVM","warehouse_id":"FC-BLR","distance_km":642.8}},{"type":"Feature","geometry":{"type":"LineString","coordinates":[[79.9419,12.9675],[78.1198,9.9252],[76.9654,8.5817]]},"properties":{"layer":"route","id":"R-CHE-TVM","code":"CHE → TVM","role":"secondary","city_id":"TVM","warehouse_id":"FC-CHE","distance_km":741.5}},{"type":"Feature","geometry":{"type":"LineString","coordinates":[[78.429,17.2543],[78.4371,17.3936]]},"properties":{"layer":"route","id":"R-HYD-HYD","code":"HYD → HYD","role":"primary","city_id":"HYD","warehouse_id":"FC-HYD","distance_km":35}},{"type":"Feature","geometry":{"type":"LineString","coordinates":[[77.7982,13.0707],[78.4371,17.3936]]},"properties":{"layer":"route","id":"R-BLR-HYD","code":"BLR → HYD","role":"secondary","city_id":"HYD","warehouse_id":"FC-BLR","distance_km":606.7}},{"type":"Feature","geometry":{"type":"LineString","coordinates":[[78.429,17.2543],[80.6757,16.5497]]},"properties":{"layer":"route","id":"R-HYD-VJA","code":"HYD → VJA","role":"primary","city_id":"VJA","warehouse_id":"FC-HYD","distance_km":312.9}},{"type":"Feature","geometry":{"type":"LineString","coordinates":[[79.9419,12.9675],[80.6757,16.5497]]},"properties":{"layer":"route","id":"R-CHE-VJA","code":"CHE → VJA","role":"secondary","city_id":"VJA","warehouse_id":"FC-CHE","distance_km":500.9}},{"type":"Feature","geometry":{"type":"LineString","coordinates":[[78.429,17.2543],[83.202,17.7551]]},"properties":{"layer":"route","id":"R-HYD-VSK","code":"HYD → VSK","role":"primary","city_id":"VSK","warehouse_id":"FC-HYD","distance_km":637.8}},{"type":"Feature","geometry":{"type":"LineString","coordinates":[[79.9419,12.9675],[83.202,17.7551]]},"properties":{"layer":"route","id":"R-CHE-VSK","code":"CHE → VSK","role":"secondary","city_id":"VSK","warehouse_id":"FC-CHE","distance_km":789.3}},{"type":"Feature","geometry":{"type":"LineString","coordinates":[[79.9419,12.9675],[80.0193,14.4773]]},"properties":{"layer":"route","id":"R-CHE-NLR","code":"CHE → NLR","role":"primary","city_id":"NLR","warehouse_id":"FC-CHE","distance_km":205.1}},{"type":"Feature","geometry":{"type":"LineString","coordinates":[[77.7982,13.0707],[80.0193,14.4773]]},"properties":{"layer":"route","id":"R-BLR-NLR","code":"BLR → NLR","role":"secondary","city_id":"NLR","warehouse_id":"FC-BLR","distance_km":351.6}},{"type":"Feature","geometry":{"type":"LineString","coordinates":[[88.29,22.68],[88.3887,22.6037]]},"properties":{"layer":"route","id":"R-KOL-KOL","code":"KOL → KOL","role":"primary","city_id":"KOL","warehouse_id":"FC-KOL","distance_km":35}},{"type":"Feature","geometry":{"type":"LineString","coordinates":[[91.67,26.19],[88.3887,22.6037]]},"properties":{"layer":"route","id":"R-GUW-KOL","code":"GUW → KOL","role":"secondary","city_id":"KOL","warehouse_id":"FC-GUW","distance_km":654.1}},{"type":"Feature","geometry":{"type":"LineString","coordinates":[[91.67,26.19],[88.3482,26.7399]]},"properties":{"layer":"route","id":"R-GUW-SLG","code":"GUW → SLG","role":"primary","city_id":"SLG","warehouse_id":"FC-GUW","distance_km":414.3}},{"type":"Feature","geometry":{"type":"LineString","coordinates":[[88.29,22.68],[88.3482,26.7399]]},"properties":{"layer":"route","id":"R-KOL-SLG","code":"KOL → SLG","role":"secondary","city_id":"SLG","warehouse_id":"FC-KOL","distance_km":562.7}},{"type":"Feature","geometry":{"type":"LineString","coordinates":[[88.29,22.68],[85.8027,20.2439]]},"properties":{"layer":"route","id":"R-KOL-BBS","code":"KOL → BBS","role":"primary","city_id":"BBS","warehouse_id":"FC-KOL","distance_km":459.8}},{"type":"Feature","geometry":{"type":"LineString","coordinates":[[78.429,17.2543],[85.8027,20.2439]]},"properties":{"layer":"route","id":"R-HYD-BBS","code":"HYD → BBS","role":"secondary","city_id":"BBS","warehouse_id":"FC-HYD","distance_km":1060.9}},{"type":"Feature","geometry":{"type":"LineString","coordinates":[[81.05,26.88],[85.2087,25.6192]]},"properties":{"layer":"route","id":"R-LKO-PAT","code":"LKO → PAT","role":"primary","city_id":"PAT","warehouse_id":"FC-LKO","distance_km":540.0}},{"type":"Feature","geometry":{"type":"LineString","coordinates":[[88.29,22.68],[85.2087,25.6192]]},"properties":{"layer":"route","id":"R-KOL-PAT","code":"KOL → PAT","role":"secondary","city_id":"PAT","warehouse_id":"FC-KOL","distance_km":569.1}},{"type":"Feature","geometry":{"type":"LineString","coordinates":[[88.29,22.68],[85.3615,23.3882]]},"properties":{"layer":"route","id":"R-KOL-RAN","code":"KOL → RAN","role":"primary","city_id":"RAN","warehouse_id":"FC-KOL","distance_km":392.3}},{"type":"Feature","geometry":{"type":"LineString","coordinates":[[81.05,26.88],[82.9739,25.3176],[85.3615,23.3882]]},"properties":{"layer":"route","id":"R-LKO-RAN","code":"LKO → RAN","role":"secondary","city_id":"RAN","warehouse_id":"FC-LKO","distance_km":727.2}},{"type":"Feature","geometry":{"type":"LineString","coordinates":[[78.429,17.2543],[81.669,21.2922]]},"properties":{"layer":"route","id":"R-HYD-RPR","code":"HYD → RPR","role":"primary","city_id":"RPR","warehouse_id":"FC-HYD","distance_km":696.4}},{"type":"Feature","geometry":{"type":"LineString","coordinates":[[81.05,26.88],[81.669,21.2922]]},"properties":{"layer":"route","id":"R-LKO-RPR","code":"LKO → RPR","role":"secondary","city_id":"RPR","warehouse_id":"FC-LKO","distance_km":785.8}},{"type":"Feature","geometry":{"type":"LineString","coordinates":[[91.67,26.19],[91.7883,26.1556]]},"properties":{"layer":"route","id":"R-GUW-GUW","code":"GUW → GUW","role":"primary","city_id":"GUW","warehouse_id":"FC-GUW","distance_km":35}},{"type":"Feature","geometry":{"type":"LineString","coordinates":[[88.29,22.68],[91.7883,26.1556]]},"properties":{"layer":"route","id":"R-KOL-GUW","code":"KOL → GUW","role":"secondary","city_id":"GUW","warehouse_id":"FC-KOL","distance_km":649.6}}]}